{
    "CCSDS_OMM_VERS": "3.0",
    "COMMENT": "GENERATED VIA SPACE-TRACK.ORG API",
    "CREATION_DATE": "2025-11-23T21:08:43",
    "ORIGINATOR": "18 SPCS",
    "OBJECT_NAME": "GALILEO 29 (10C)",
    "OBJECT_ID": "2024-079A",
    "CENTER_NAME": "EARTH",
    "REF_FRAME": "TEME",
    "TIME_SYSTEM": "UTC",
    "MEAN_ELEMENT_THEORY": "SGP4",
    "EPOCH": "2025-11-22T08:06:45.485280",
    "MEAN_MOTION": "1.70474850",
    "ECCENTRICITY": "0.00023119",
    "INCLINATION": "54.9886",
    "RA_OF_ASC_NODE": "106.8660",
    "ARG_OF_PERICENTER": "167.3647",
    "MEAN_ANOMALY": "189.6708",
    "EPHEMERIS_TYPE": "0",
    "CLASSIFICATION_TYPE": "U",
    "NORAD_CAT_ID": "59598",
    "ELEMENT_SET_NO": "999",
    "REV_AT_EPOCH": "978",
    "BSTAR": "0.00000000000000",
    "MEAN_MOTION_DOT": "0.00000033",
    "MEAN_MOTION_DDOT": "0.0000000000000",
    "SEMIMAJOR_AXIS": "29600.222",
    "PERIOD": "844.699",
    "APOAPSIS": "23228.930",
    "PERIAPSIS": "23215.243",
    "OBJECT_TYPE": "PAYLOAD",
    "RCS_SIZE": "LARGE",
    "COUNTRY_CODE": "ESA",
    "LAUNCH_DATE": "2024-04-28",
    "SITE": "AFETR",
    "DECAY_DATE": null,
    "FILE": "4896238",
    "GP_ID": "303343267",
    "TLE_LINE0": "0 GALILEO 29 (10C)",
    "TLE_LINE1": "1 59598U 24079A   25326.33802645  .00000033  00000-0  00000-0 0  9993",
    "TLE_LINE2": "2 59598  54.9886 106.8660 0002312 167.3647 189.6708  1.70474850  9786"
}